<?xml version="1.0" encoding="UTF-8"?>
<ndm xmlns:xsi="http://www.w3.org/2001/XMLSchema-instance" xsi:noNamespaceSchemaLocation="https://sanaregistry.org/r/ndmxml_unqualified/ndmxml-2.0.0-master-2.0.xsd">
<omm id="CCSDS_OMM_VERS" version="2.0">
<header><CREATION_DATE/><ORIGINATOR/></header><body><segment><metadata><OBJECT_NAME>ORBCOMM FM20</OBJECT_NAME><OBJECT_ID>1998-046D</OBJECT_ID><CENTER_NAME>EARTH</CENTER_NAME><REF_FRAME>TEME</REF_FRAME><TIME_SYSTEM>UTC</TIME_SYSTEM><MEAN_ELEMENT_THEORY>SGP4</MEAN_ELEMENT_THEORY></metadata><data><meanElements><EPOCH>2024-08-25T10:10:53.504832</EPOCH><MEAN_MOTION>14.35668277</MEAN_MOTION><ECCENTRICITY>.0000751</ECCENTRICITY><INCLINATION>44.9936</INCLINATION><RA_OF_ASC_NODE>140.4909</RA_OF_ASC_NODE><ARG_OF_PERICENTER>348.4911</ARG_OF_PERICENTER><MEAN_ANOMALY>11.5919</MEAN_ANOMALY></meanElements><tleParameters><EPHEMERIS_TYPE>0</EPHEMERIS_TYPE><CLASSIFICATION_TYPE>U</CLASSIFICATION_TYPE><NORAD_CAT_ID>25416</NORAD_CAT_ID><ELEMENT_SET_NO>999</ELEMENT_SET_NO><REV_AT_EPOCH>36173</REV_AT_EPOCH><BSTAR>.84348E-3</BSTAR><MEAN_MOTION_DOT>.2316E-4</MEAN_MOTION_DOT><MEAN_MOTION_DDOT>0</MEAN_MOTION_DDOT></tleParameters></data></segment></body></omm>
<omm id="CCSDS_OMM_VERS" version="2.0">
<header><CREATION_DATE/><ORIGINATOR/></header><body><segment><metadata><OBJECT_NAME>ORBCOMM FM16</OBJECT_NAME><OBJECT_ID>1998-046E</OBJECT_ID><CENTER_NAME>EARTH</CENTER_NAME><REF_FRAME>TEME</REF_FRAME><TIME_SYSTEM>UTC</TIME_SYSTEM><MEAN_ELEMENT_THEORY>SGP4</MEAN_ELEMENT_THEORY></metadata><data><meanElements><EPOCH>2024-08-25T13:58:58.349856</EPOCH><MEAN_MOTION>14.36810955</MEAN_MOTION><ECCENTRICITY>.0003292</ECCENTRICITY><INCLINATION>44.9929</INCLINATION><RA_OF_ASC_NODE>134.6460</RA_OF_ASC_NODE><ARG_OF_PERICENTER>260.6870</ARG_OF_PERICENTER><MEAN_ANOMALY>99.3605</MEAN_ANOMALY></meanElements><tleParameters><EPHEMERIS_TYPE>0</EPHEMERIS_TYPE><CLASSIFICATION_TYPE>U</CLASSIFICATION_TYPE><NORAD_CAT_ID>25417</NORAD_CAT_ID><ELEMENT_SET_NO>999</ELEMENT_SET_NO><REV_AT_EPOCH>36170</REV_AT_EPOCH><BSTAR>.10809E-2</BSTAR><MEAN_MOTION_DOT>.3081E-4</MEAN_MOTION_DOT><MEAN_MOTION_DDOT>0</MEAN_MOTION_DDOT></tleParameters></data></segment></body></omm>
<omm id="CCSDS_OMM_VERS" version="2.0">
<header><CREATION_DATE/><ORIGINATOR/></header><body><segment><metadata><OBJECT_NAME>ORBCOMM FM13</OBJECT_NAME><OBJECT_ID>1998-046H</OBJECT_ID><CENTER_NAME>EARTH</CENTER_NAME><REF_FRAME>TEME</REF_FRAME><TIME_SYSTEM>UTC</TIME_SYSTEM><MEAN_ELEMENT_THEORY>SGP4</MEAN_ELEMENT_THEORY></metadata><data><meanElements><EPOCH>2024-08-25T11:09:46.908864</EPOCH><MEAN_MOTION>14.35905952</MEAN_MOTION><ECCENTRICITY>.0003953</ECCENTRICITY><INCLINATION>44.9969</INCLINATION><RA_OF_ASC_NODE>143.9850</RA_OF_ASC_NODE><ARG_OF_PERICENTER>241.6547</ARG_OF_PERICENTER><MEAN_ANOMALY>118.3902</MEAN_ANOMALY></meanElements><tleParameters><EPHEMERIS_TYPE>0</EPHEMERIS_TYPE><CLASSIFICATION_TYPE>U</CLASSIFICATION_TYPE><NORAD_CAT_ID>25420</NORAD_CAT_ID><ELEMENT_SET_NO>999</ELEMENT_SET_NO><REV_AT_EPOCH>36070</REV_AT_EPOCH><BSTAR>.92683E-3</BSTAR><MEAN_MOTION_DOT>.2572E-4</MEAN_MOTION_DOT><MEAN_MOTION_DDOT>0</MEAN_MOTION_DDOT></tleParameters></data></segment></body></omm>
<omm id="CCSDS_OMM_VERS" version="2.0">
<header><CREATION_DATE/><ORIGINATOR/></header><body><segment><metadata><OBJECT_NAME>ORBCOMM FM21</OBJECT_NAME><OBJECT_ID>1998-053A</OBJECT_ID><CENTER_NAME>EARTH</CENTER_NAME><REF_FRAME>TEME</REF_FRAME><TIME_SYSTEM>UTC</TIME_SYSTEM><MEAN_ELEMENT_THEORY>SGP4</MEAN_ELEMENT_THEORY></metadata><data><meanElements><EPOCH>2024-08-25T11:49:12.565920</EPOCH><MEAN_MOTION>14.35775487</MEAN_MOTION><ECCENTRICITY>.0002027</ECCENTRICITY><INCLINATION>45.0067</INCLINATION><RA_OF_ASC_NODE>228.3487</RA_OF_ASC_NODE><ARG_OF_PERICENTER>281.3106</ARG_OF_PERICENTER><MEAN_ANOMALY>78.7514</MEAN_ANOMALY></meanElements><tleParameters><EPHEMERIS_TYPE>0</EPHEMERIS_TYPE><CLASSIFICATION_TYPE>U</CLASSIFICATION_TYPE><NORAD_CAT_ID>25475</NORAD_CAT_ID><ELEMENT_SET_NO>999</ELEMENT_SET_NO><REV_AT_EPOCH>35505</REV_AT_EPOCH><BSTAR>.80497E-3</BSTAR><MEAN_MOTION_DOT>.2209E-4</MEAN_MOTION_DOT><MEAN_MOTION_DDOT>0</MEAN_MOTION_DDOT></tleParameters></data></segment></body></omm>
<omm id="CCSDS_OMM_VERS" version="2.0">
<header><CREATION_DATE/><ORIGINATOR/></header><body><segment><metadata><OBJECT_NAME>ORBCOMM FM22</OBJECT_NAME><OBJECT_ID>1998-053B</OBJECT_ID><CENTER_NAME>EARTH</CENTER_NAME><REF_FRAME>TEME</REF_FRAME><TIME_SYSTEM>UTC</TIME_SYSTEM><MEAN_ELEMENT_THEORY>SGP4</MEAN_ELEMENT_THEORY></metadata><data><meanElements><EPOCH>2024-08-25T10:15:45.900576</EPOCH><MEAN_MOTION>14.36393832</MEAN_MOTION><ECCENTRICITY>.0001934</ECCENTRICITY><INCLINATION>45.0062</INCLINATION><RA_OF_ASC_NODE>225.4686</RA_OF_ASC_NODE><ARG_OF_PERICENTER>237.9272</ARG_OF_PERICENTER><MEAN_ANOMALY>122.1388</MEAN_ANOMALY></meanElements><tleParameters><EPHEMERIS_TYPE>0</EPHEMERIS_TYPE><CLASSIFICATION_TYPE>U</CLASSIFICATION_TYPE><NORAD_CAT_ID>25476</NORAD_CAT_ID><ELEMENT_SET_NO>999</ELEMENT_SET_NO><REV_AT_EPOCH>35471</REV_AT_EPOCH><BSTAR>.10603E-2</BSTAR><MEAN_MOTION_DOT>.2993E-4</MEAN_MOTION_DOT><MEAN_MOTION_DDOT>0</MEAN_MOTION_DDOT></tleParameters></data></segment></body></omm>
<omm id="CCSDS_OMM_VERS" version="2.0">
<header><CREATION_DATE/><ORIGINATOR/></header><body><segment><metadata><OBJECT_NAME>ORBCOMM FM23</OBJECT_NAME><OBJECT_ID>1998-053C</OBJECT_ID><CENTER_NAME>EARTH</CENTER_NAME><REF_FRAME>TEME</REF_FRAME><TIME_SYSTEM>UTC</TIME_SYSTEM><MEAN_ELEMENT_THEORY>SGP4</MEAN_ELEMENT_THEORY></metadata><data><meanElements><EPOCH>2024-08-25T10:44:39.605568</EPOCH><MEAN_MOTION>14.35817181</MEAN_MOTION><ECCENTRICITY>.00019</ECCENTRICITY><INCLINATION>45.0068</INCLINATION><RA_OF_ASC_NODE>230.9487</RA_OF_ASC_NODE><ARG_OF_PERICENTER>252.2573</ARG_OF_PERICENTER><MEAN_ANOMALY>107.8067</MEAN_ANOMALY></meanElements><tleParameters><EPHEMERIS_TYPE>0</EPHEMERIS_TYPE><CLASSIFICATION_TYPE>U</CLASSIFICATION_TYPE><NORAD_CAT_ID>25477</NORAD_CAT_ID><ELEMENT_SET_NO>999</ELEMENT_SET_NO><REV_AT_EPOCH>35486</REV_AT_EPOCH><BSTAR>.99544E-3</BSTAR><MEAN_MOTION_DOT>.2767E-4</MEAN_MOTION_DOT><MEAN_MOTION_DDOT>0</MEAN_MOTION_DDOT></tleParameters></data></segment></body></omm>

</ndm>
