ORBCOMM FM20            
1 25416U 98046D   24238.42423038  .00002316  00000+0  84348-3 0  9991
2 25416  44.9936 140.4909 0000751 348.4911  11.5919 14.35668277361730
ORBCOMM FM16            
1 25417U 98046E   24238.58261979  .00003081  00000+0  10809-2 0  9993
2 25417  44.9929 134.6460 0003292 260.6870  99.3605 14.36810955361708
ORBCOMM FM13            
1 25420U 98046H   24238.46512626  .00002572  00000+0  92683-3 0  9997
2 25420  44.9969 143.9850 0003953 241.6547 118.3902 14.35905952360708
ORBCOMM FM21            
1 25475U 98053A   24238.49250655  .00002209  00000+0  80497-3 0  9996
2 25475  45.0067 228.3487 0002027 281.3106  78.7514 14.35775487355054
ORBCOMM FM22            
1 25476U 98053B   24238.42761459  .00002993  00000+0  10603-2 0  9990
2 25476  45.0062 225.4686 0001934 237.9272 122.1388 14.36393832354712
ORBCOMM FM23            
1 25477U 98053C   24238.44768062  .00002767  00000+0  99544-3 0  9991
2 25477  45.0068 230.9487 0001900 252.2573 107.8067 14.35817181354863
